[{"OBJECT_NAME":"IRIDIUM 173","OBJECT_ID":"2019-002D","EPOCH":"2026-04-04T20:38:22.843104","MEAN_MOTION":14.34218494,"ECCENTRICITY":0.00021169,"INCLINATION":86.4014,"RA_OF_ASC_NODE":24.1995,"ARG_OF_PERICENTER":87.1338,"MEAN_ANOMALY":273.01,"EPHEMERIS_TYPE":0,"CLASSIFICATION_TYPE":"U","NORAD_CAT_ID":43925,"ELEMENT_SET_NO":999,"REV_AT_EPOCH":37844,"BSTAR":6.1436621e-5,"MEAN_MOTION_DOT":1.92e-6,"MEAN_MOTION_DDOT":0},{"OBJECT_NAME":"IRIDIUM 169","OBJECT_ID":"2019-002E","EPOCH":"2026-04-04T22:34:15.784608","MEAN_MOTION":14.38609597,"ECCENTRICITY":0.00021297,"INCLINATION":86.4214,"RA_OF_ASC_NODE":55.8027,"ARG_OF_PERICENTER":104.9415,"MEAN_ANOMALY":255.2019,"EPHEMERIS_TYPE":0,"CLASSIFICATION_TYPE":"U","NORAD_CAT_ID":43926,"ELEMENT_SET_NO":999,"REV_AT_EPOCH":37969,"BSTAR":0.00015906369,"MEAN_MOTION_DOT":5.06e-6,"MEAN_MOTION_DDOT":0},{"OBJECT_NAME":"IRIDIUM 172","OBJECT_ID":"2019-002F","EPOCH":"2026-04-04T20:29:14.856288","MEAN_MOTION":14.34218508,"ECCENTRICITY":0.00021438,"INCLINATION":86.4012,"RA_OF_ASC_NODE":24.2099,"ARG_OF_PERICENTER":81.7817,"MEAN_ANOMALY":278.3621,"EPHEMERIS_TYPE":0,"CLASSIFICATION_TYPE":"U","NORAD_CAT_ID":43927,"ELEMENT_SET_NO":999,"REV_AT_EPOCH":37845,"BSTAR":4.2112936e-5,"MEAN_MOTION_DOT":1.38e-6,"MEAN_MOTION_DDOT":0},{"OBJECT_NAME":"IRIDIUM 175","OBJECT_ID":"2019-002G","EPOCH":"2026-04-04T15:54:07.985088","MEAN_MOTION":14.43583517,"ECCENTRICITY":0.0005287,"INCLINATION":86.4515,"RA_OF_ASC_NODE":321.2753,"ARG_OF_PERICENTER":99.0447,"MEAN_ANOMALY":261.1352,"EPHEMERIS_TYPE":0,"CLASSIFICATION_TYPE":"U","NORAD_CAT_ID":43928,"ELEMENT_SET_NO":999,"REV_AT_EPOCH":38837,"BSTAR":0.00014555947,"MEAN_MOTION_DOT":5.13e-6,"MEAN_MOTION_DDOT":0},{"OBJECT_NAME":"IRIDIUM 171","OBJECT_ID":"2019-002H","EPOCH":"2026-04-04T20:01:50.669472","MEAN_MOTION":14.34217847,"ECCENTRICITY":0.00023376,"INCLINATION":86.4025,"RA_OF_ASC_NODE":24.516,"ARG_OF_PERICENTER":88.2673,"MEAN_ANOMALY":271.8791,"EPHEMERIS_TYPE":0,"CLASSIFICATION_TYPE":"U","NORAD_CAT_ID":43929,"ELEMENT_SET_NO":999,"REV_AT_EPOCH":37844,"BSTAR":0.00014230405,"MEAN_MOTION_DOT":4.18e-6,"MEAN_MOTION_DDOT":0},{"OBJECT_NAME":"IRIDIUM 170","OBJECT_ID":"2019-002J","EPOCH":"2026-04-04T19:52:21.713376","MEAN_MOTION":14.7225436,"ECCENTRICITY":0.00023732,"INCLINATION":86.6134,"RA_OF_ASC_NODE":24.2024,"ARG_OF_PERICENTER":81.3116,"MEAN_ANOMALY":278.837,"EPHEMERIS_TYPE":0,"CLASSIFICATION_TYPE":"U","NORAD_CAT_ID":43930,"ELEMENT_SET_NO":999,"REV_AT_EPOCH":38846,"BSTAR":0.00023558594,"MEAN_MOTION_DOT":1.51e-5,"MEAN_MOTION_DDOT":0},{"OBJECT_NAME":"IRIDIUM 167","OBJECT_ID":"2019-002K","EPOCH":"2026-04-04T21:33:10.936800","MEAN_MOTION":14.34216657,"ECCENTRICITY":0.00024334,"INCLINATION":86.4014,"RA_OF_ASC_NODE":24.2131,"ARG_OF_PERICENTER":92.2583,"MEAN_ANOMALY":267.8891,"EPHEMERIS_TYPE":0,"CLASSIFICATION_TYPE":"U","NORAD_CAT_ID":43931,"ELEMENT_SET_NO":999,"REV_AT_EPOCH":37845,"BSTAR":0.00014299615,"MEAN_MOTION_DOT":4.2e-6,"MEAN_MOTION_DDOT":0},{"OBJECT_NAME":"IRIDIUM 181","OBJECT_ID":"2023-068S","EPOCH":"2026-04-04T11:29:14.305056","MEAN_MOTION":14.43312266,"ECCENTRICITY":0.00024709,"INCLINATION":86.4449,"RA_OF_ASC_NODE":87.606,"ARG_OF_PERICENTER":82.4473,"MEAN_ANOMALY":277.7008,"EPHEMERIS_TYPE":0,"CLASSIFICATION_TYPE":"U","NORAD_CAT_ID":56726,"ELEMENT_SET_NO":999,"REV_AT_EPOCH":15180,"BSTAR":6.7560962e-5,"MEAN_MOTION_DOT":2.48e-6,"MEAN_MOTION_DDOT":0},{"OBJECT_NAME":"IRIDIUM 177","OBJECT_ID":"2023-068T","EPOCH":"2026-04-04T18:31:45.516576","MEAN_MOTION":14.80236516,"ECCENTRICITY":0.00021899,"INCLINATION":86.2019,"RA_OF_ASC_NODE":3.6509,"ARG_OF_PERICENTER":89.6467,"MEAN_ANOMALY":270.5004,"EPHEMERIS_TYPE":0,"CLASSIFICATION_TYPE":"U","NORAD_CAT_ID":56727,"ELEMENT_SET_NO":999,"REV_AT_EPOCH":15550,"BSTAR":0.00026372235,"MEAN_MOTION_DOT":2.031e-5,"MEAN_MOTION_DDOT":0},{"OBJECT_NAME":"IRIDIUM 174","OBJECT_ID":"2023-068U","EPOCH":"2026-04-04T19:34:33.987360","MEAN_MOTION":14.72243954,"ECCENTRICITY":0.00021904,"INCLINATION":86.6142,"RA_OF_ASC_NODE":24.3474,"ARG_OF_PERICENTER":80.9136,"MEAN_ANOMALY":279.2329,"EPHEMERIS_TYPE":0,"CLASSIFICATION_TYPE":"U","NORAD_CAT_ID":56728,"ELEMENT_SET_NO":999,"REV_AT_EPOCH":15522,"BSTAR":0.00025222046,"MEAN_MOTION_DOT":1.615e-5,"MEAN_MOTION_DDOT":0},{"OBJECT_NAME":"IRIDIUM 178","OBJECT_ID":"2023-068V","EPOCH":"2026-04-04T21:30:43.871040","MEAN_MOTION":14.80231992,"ECCENTRICITY":0.00027485,"INCLINATION":86.6527,"RA_OF_ASC_NODE":55.976,"ARG_OF_PERICENTER":85.4519,"MEAN_ANOMALY":274.7017,"EPHEMERIS_TYPE":0,"CLASSIFICATION_TYPE":"U","NORAD_CAT_ID":56729,"ELEMENT_SET_NO":999,"REV_AT_EPOCH":15552,"BSTAR":0.00011127375,"MEAN_MOTION_DOT":8.72e-6,"MEAN_MOTION_DDOT":0},{"OBJECT_NAME":"IRIDIUM 179","OBJECT_ID":"2023-068W","EPOCH":"2026-04-04T21:22:59.406240","MEAN_MOTION":14.80239738,"ECCENTRICITY":0.00028301,"INCLINATION":86.6754,"RA_OF_ASC_NODE":64.7445,"ARG_OF_PERICENTER":95.5463,"MEAN_ANOMALY":264.6082,"EPHEMERIS_TYPE":0,"CLASSIFICATION_TYPE":"U","NORAD_CAT_ID":56730,"ELEMENT_SET_NO":999,"REV_AT_EPOCH":15552,"BSTAR":0.00026739212,"MEAN_MOTION_DOT":2.058e-5,"MEAN_MOTION_DDOT":0}]
