IRIDIUM 173             
1 43925U 19002D   26094.85998661  .00000192  00000+0  61437-4 0  9994
2 43925  86.4014  24.1995 0002116  87.1338 273.0100 14.34218494378447
IRIDIUM 169             
1 43926U 19002E   26094.94046047  .00000506  00000+0  15906-3 0  9995
2 43926  86.4214  55.8027 0002129 104.9415 255.2019 14.38609597379696
IRIDIUM 172             
1 43927U 19002F   26094.85364417  .00000138  00000+0  42113-4 0  9992
2 43927  86.4012  24.2099 0002143  81.7817 278.3621 14.34218508378458
IRIDIUM 175             
1 43928U 19002G   26094.66259242  .00000513  00000+0  14556-3 0  9997
2 43928  86.4515 321.2753 0005287  99.0447 261.1352 14.43583517388375
IRIDIUM 171             
1 43929U 19002H   26094.83461423  .00000418  00000+0  14230-3 0  9996
2 43929  86.4025  24.5160 0002337  88.2673 271.8791 14.34217847378443
IRIDIUM 170             
1 43930U 19002J   26094.82802909  .00001510  00000+0  23559-3 0  9993
2 43930  86.6134  24.2024 0002373  81.3116 278.8370 14.72254360388466
IRIDIUM 167             
1 43931U 19002K   26094.89804325  .00000420  00000+0  14300-3 0  9998
2 43931  86.4014  24.2131 0002433  92.2583 267.8891 14.34216657378456
IRIDIUM 181             
1 56726U 23068S   26094.47863779  .00000248  00000+0  67561-4 0  9999
2 56726  86.4449  87.6060 0002470  82.4473 277.7008 14.43312266151809
IRIDIUM 177             
1 56727U 23068T   26094.77205459  .00002031  00000+0  26372-3 0  9994
2 56727  86.2019   3.6509 0002189  89.6467 270.5004 14.80236516155508
IRIDIUM 174             
1 56728U 23068U   26094.81567115  .00001615  00000+0  25222-3 0  9990
2 56728  86.6142  24.3474 0002190  80.9136 279.2329 14.72243954155220
IRIDIUM 178             
1 56729U 23068V   26094.89634110  .00000872  00000+0  11127-3 0  9992
2 56729  86.6527  55.9760 0002748  85.4519 274.7017 14.80231992155525
IRIDIUM 179             
1 56730U 23068W   26094.89096535  .00002058  00000+0  26739-3 0  9990
2 56730  86.6754  64.7445 0002830  95.5463 264.6082 14.80239738155525
